{"type": "FeatureCollection", "features": [ {"type": "Feature", "properties": {"norad_id": 66485, "name": "STARLINK-34774", "group": "last-30-days", "lat": -37.23925188297355, "lon": 13.082610053296369, "alt_km": 438.28528289148016, "timestamp": "2025-12-10T11:33:52.171480+00:00", "meta": {"OBJECT_NAME": "STARLINK-34774", "OBJECT_ID": "2025-263A", "EPOCH": "2025-12-10T04:00:01.998720", "MEAN_MOTION": 15.44835659, "ECCENTRICITY": 0.0001382, "INCLINATION": 43.001, "RA_OF_ASC_NODE": 140.2537, "ARG_OF_PERICENTER": 259.7708, "MEAN_ANOMALY": 28.7501, "EPHEMERIS_TYPE": 0, "CLASSIFICATION_TYPE": "U", "NORAD_CAT_ID": 66485, "ELEMENT_SET_NO": 999, "REV_AT_EPOCH": 522, "BSTAR": -0.048845, "MEAN_MOTION_DOT": -0.02080989, "MEAN_MOTION_DDOT": 0}, "tle": {"line1": "1 66485U 25263A   25344.16668980 -.02080989  00000+0 -48845-1 0  9996", "line2": "2 66485  43.0010 140.2537 0001382 259.7708  28.7501 15.44835659  5225"}}, "geometry": {"type": "Point", "coordinates": [13.082610053296369, -37.23925188297355]}}, {"type": "Feature", "properties": {"norad_id": 66486, "name": "STARLINK-34844", "group": "last-30-days", "lat": -42.78564770094431, "lon": 41.68778370979342, "alt_km": 417.43879597116575, "timestamp": "2025-12-10T11:33:52.171490+00:00", "meta": {"OBJECT_NAME": "STARLINK-34844", "OBJECT_ID": "2025-263B", "EPOCH": "2025-12-10T04:00:01.998720", "MEAN_MOTION": 15.50586595, "ECCENTRICITY": 0.0001577, "INCLINATION": 43.0009, "RA_OF_ASC_NODE": 140.215, "ARG_OF_PERICENTER": 262.5435, "MEAN_ANOMALY": 41.1865, "EPHEMERIS_TYPE": 0, "CLASSIFICATION_TYPE": "U", "NORAD_CAT_ID": 66486, "ELEMENT_SET_NO": 999, "REV_AT_EPOCH": 517, "BSTAR": -0.0012924, "MEAN_MOTION_DOT": -0.00075454, "MEAN_MOTION_DDOT": 0}, "tle": {"line1": "1 66486U 25263B   25344.16668980 -.00075454  00000+0 -12924-2 0  9996", "line2": "2 66486  43.0009 140.2150 0001577 262.5435  41.1865 15.50586595  5175"}}, "geometry": {"type": "Point", "coordinates": [41.68778370979342, -42.78564770094431]}}, {"type": "Feature", "properties": {"norad_id": 66487, "name": "STARLINK-34733", "group": "last-30-days", "lat": -42.89923448956903, "lon": 44.06551967756448, "alt_km": 417.7850339943989, "timestamp": "2025-12-10T11:33:52.171501+00:00", "meta": {"OBJECT_NAME": "STARLINK-34733", "OBJECT_ID": "2025-263C", "EPOCH": "2025-12-09T14:00:01.999872", "MEAN_MOTION": 15.50577941, "ECCENTRICITY": 0.00013994, "INCLINATION": 43.0003, "RA_OF_ASC_NODE": 143.6239, "ARG_OF_PERICENTER": 264.9276, "MEAN_ANOMALY": 20.6121, "EPHEMERIS_TYPE": 0, "CLASSIFICATION_TYPE": "U", "NORAD_CAT_ID": 66487, "ELEMENT_SET_NO": 999, "REV_AT_EPOCH": 512, "BSTAR": -0.0011104276, "MEAN_MOTION_DOT": -0.00064944, "MEAN_MOTION_DDOT": 0}, "tle": {"line1": "1 66487U 25263C   25343.58335648 -.00064944  00000+0 -11104-2 0  9995", "line2": "2 66487  43.0003 143.6239 0001399 264.9276  20.6121 15.50577941  5123"}}, "geometry": {"type": "Point", "coordinates": [44.06551967756448, -42.89923448956903]}}, {"type": "Feature", "properties": {"norad_id": 66488, "name": "STARLINK-35515", "group": "last-30-days", "lat": -42.971011270134824, "lon": 46.89699631573455, "alt_km": 417.4980535748373, "timestamp": "2025-12-10T11:33:52.171511+00:00", "meta": {"OBJECT_NAME": "STARLINK-35515", "OBJECT_ID": "2025-263D", "EPOCH": "2025-12-10T04:00:01.998720", "MEAN_MOTION": 15.50590794, "ECCENTRICITY": 0.0001506, "INCLINATION": 43.0008, "RA_OF_ASC_NODE": 140.2061, "ARG_OF_PERICENTER": 264.6717, "MEAN_ANOMALY": 42.8899, "EPHEMERIS_TYPE": 0, "CLASSIFICATION_TYPE": "U", "NORAD_CAT_ID": 66488, "ELEMENT_SET_NO": 999, "REV_AT_EPOCH": 522, "BSTAR": -0.0014361, "MEAN_MOTION_DOT": -0.00083733, "MEAN_MOTION_DDOT": 0}, "tle": {"line1": "1 66488U 25263D   25344.16668980 -.00083733  00000+0 -14361-2 0  9994", "line2": "2 66488  43.0008 140.2061 0001506 264.6717  42.8899 15.50590794  5222"}}, "geometry": {"type": "Point", "coordinates": [46.89699631573455, -42.971011270134824]}}, {"type": "Feature", "properties": {"norad_id": 66489, "name": "STARLINK-35696", "group": "last-30-days", "lat": -42.974554532489755, "lon": 49.510966346476465, "alt_km": 417.38930266141233, "timestamp": "2025-12-10T11:33:52.171520+00:00", "meta": {"OBJECT_NAME": "STARLINK-35696", "OBJECT_ID": "2025-263E", "EPOCH": "2025-12-10T04:00:01.998720", "MEAN_MOTION": 15.50625396, "ECCENTRICITY": 0.0001643, "INCLINATION": 43.0008, "RA_OF_ASC_NODE": 140.2003, "ARG_OF_PERICENTER": 264.5369, "MEAN_ANOMALY": 44.9209, "EPHEMERIS_TYPE": 0, "CLASSIFICATION_TYPE": "U", "NORAD_CAT_ID": 66489, "ELEMENT_SET_NO": 999, "REV_AT_EPOCH": 522, "BSTAR": -0.002216, "MEAN_MOTION_DOT": -0.00128447, "MEAN_MOTION_DDOT": 0}, "tle": {"line1": "1 66489U 25263E   25344.16668980 -.00128447  00000+0 -22160-2 0  9993", "line2": "2 66489  43.0008 140.2003 0001643 264.5369  44.9209 15.50625396  5228"}}, "geometry": {"type": "Point", "coordinates": [49.510966346476465, -42.974554532489755]}}, {"type": "Feature", "properties": {"norad_id": 66490, "name": "STARLINK-35693", "group": "last-30-days", "lat": -42.97213447362582, "lon": 49.724343975528775, "alt_km": 423.4584825359525, "timestamp": "2025-12-10T11:33:52.171531+00:00", "meta": {"OBJECT_NAME": "STARLINK-35693", "OBJECT_ID": "2025-263F", "EPOCH": "2025-12-10T04:00:01.998720", "MEAN_MOTION": 15.49941481, "ECCENTRICITY": 0.0001532, "INCLINATION": 43.0007, "RA_OF_ASC_NODE": 140.1953, "ARG_OF_PERICENTER": 260.9462, "MEAN_ANOMALY": 50.2396, "EPHEMERIS_TYPE": 0, "CLASSIFICATION_TYPE": "U", "NORAD_CAT_ID": 66490, "ELEMENT_SET_NO": 999, "REV_AT_EPOCH": 522, "BSTAR": -0.041661, "MEAN_MOTION_DOT": -0.02118922, "MEAN_MOTION_DDOT": 0}, "tle": {"line1": "1 66490U 25263F   25344.16668980 -.02118922  00000+0 -41661-1 0  9990", "line2": "2 66490  43.0007 140.1953 0001532 260.9462  50.2396 15.49941481  5224"}}, "geometry": {"type": "Point", "coordinates": [49.724343975528775, -42.97213447362582]}}, {"type": "Feature", "properties": {"norad_id": 66491, "name": "STARLINK-35663", "group": "last-30-days", "lat": -42.629029286897705, "lon": 57.30981603467505, "alt_km": 417.3898910019343, "timestamp": "2025-12-10T11:33:52.171545+00:00", "meta": {"OBJECT_NAME": "STARLINK-35663", "OBJECT_ID": "2025-263G", "EPOCH": "2025-12-10T04:00:01.998720", "MEAN_MOTION": 15.50625354, "ECCENTRICITY": 0.0001653, "INCLINATION": 43.0008, "RA_OF_ASC_NODE": 140.1857, "ARG_OF_PERICENTER": 261.9409, "MEAN_ANOMALY": 53.2639, "EPHEMERIS_TYPE": 0, "CLASSIFICATION_TYPE": "U", "NORAD_CAT_ID": 66491, "ELEMENT_SET_NO": 999, "REV_AT_EPOCH": 522, "BSTAR": -0.0021856, "MEAN_MOTION_DOT": -0.00126719, "MEAN_MOTION_DDOT": 0}, "tle": {"line1": "1 66491U 25263G   25344.16668980 -.00126719  00000+0 -21856-2 0  9997", "line2": "2 66491  43.0008 140.1857 0001653 261.9409  53.2639 15.50625354  5228"}}, "geometry": {"type": "Point", "coordinates": [57.30981603467505, -42.629029286897705]}}, {"type": "Feature", "properties": {"norad_id": 66492, "name": "STARLINK-35673", "group": "last-30-days", "lat": -42.712010984671736, "lon": 40.5241594431731, "alt_km": 434.82010030577567, "timestamp": "2025-12-10T11:33:52.171555+00:00", "meta": {"OBJECT_NAME": "STARLINK-35673", "OBJECT_ID": "2025-263H", "EPOCH": "2025-12-10T04:00:01.998720", "MEAN_MOTION": 15.46041193, "ECCENTRICITY": 0.0001512, "INCLINATION": 43.0012, "RA_OF_ASC_NODE": 140.2018, "ARG_OF_PERICENTER": 267.0292, "MEAN_ANOMALY": 41.81, "EPHEMERIS_TYPE": 0, "CLASSIFICATION_TYPE": "U", "NORAD_CAT_ID": 66492, "ELEMENT_SET_NO": 999, "REV_AT_EPOCH": 522, "BSTAR": -0.046688, "MEAN_MOTION_DOT": -0.02074803, "MEAN_MOTION_DDOT": 0}, "tle": {"line1": "1 66492U 25263H   25344.16668980 -.02074803  00000+0 -46688-1 0  9995", "line2": "2 66492  43.0012 140.2018 0001512 267.0292  41.8100 15.46041193  5229"}}, "geometry": {"type": "Point", "coordinates": [40.5241594431731, -42.712010984671736]}}, {"type": "Feature", "properties": {"norad_id": 66493, "name": "STARLINK-35597", "group": "last-30-days", "lat": -42.106462303262305, "lon": 62.437896339535165, "alt_km": 417.436984943045, "timestamp": "2025-12-10T11:33:52.171565+00:00", "meta": {"OBJECT_NAME": "STARLINK-35597", "OBJECT_ID": "2025-263J", "EPOCH": "2025-12-10T04:00:01.998720", "MEAN_MOTION": 15.50635854, "ECCENTRICITY": 0.0001587, "INCLINATION": 43.0008, "RA_OF_ASC_NODE": 140.1756, "ARG_OF_PERICENTER": 261.5624, "MEAN_ANOMALY": 57.4737, "EPHEMERIS_TYPE": 0, "CLASSIFICATION_TYPE": "U", "NORAD_CAT_ID": 66493, "ELEMENT_SET_NO": 999, "REV_AT_EPOCH": 522, "BSTAR": -0.0025105, "MEAN_MOTION_DOT": -0.00145217, "MEAN_MOTION_DDOT": 0}, "tle": {"line1": "1 66493U 25263J   25344.16668980 -.00145217  00000+0 -25105-2 0  9994", "line2": "2 66493  43.0008 140.1756 0001587 261.5624  57.4737 15.50635854  5220"}}, "geometry": {"type": "Point", "coordinates": [62.437896339535165, -42.106462303262305]}}, {"type": "Feature", "properties": {"norad_id": 66494, "name": "STARLINK-35689", "group": "last-30-days", "lat": -42.80283644440679, "lon": 54.727885053624576, "alt_km": 417.4333365571474, "timestamp": "2025-12-10T11:33:52.171577+00:00", "meta": {"OBJECT_NAME": "STARLINK-35689", "OBJECT_ID": "2025-263K", "EPOCH": "2025-12-10T04:00:01.998720", "MEAN_MOTION": 15.50640198, "ECCENTRICITY": 0.0001601, "INCLINATION": 43.0008, "RA_OF_ASC_NODE": 140.1913, "ARG_OF_PERICENTER": 262.4987, "MEAN_ANOMALY": 50.7889, "EPHEMERIS_TYPE": 0, "CLASSIFICATION_TYPE": "U", "NORAD_CAT_ID": 66494, "ELEMENT_SET_NO": 999, "REV_AT_EPOCH": 522, "BSTAR": -0.0026992, "MEAN_MOTION_DOT": -0.00155924, "MEAN_MOTION_DDOT": 0}, "tle": {"line1": "1 66494U 25263K   25344.16668980 -.00155924  00000+0 -26992-2 0  9996", "line2": "2 66494  43.0008 140.1913 0001601 262.4987  50.7889 15.50640198  5226"}}, "geometry": {"type": "Point", "coordinates": [54.727885053624576, -42.80283644440679]}}]}